ATLAS CENTAUR 2         
1 00694U 63047A   26166.23050384  .00001188  00000+0  12973-3 0  9997
2 00694  30.3577  10.3360 0545988 220.2600 135.6319 14.12515704145424
THOR AGENA D R/B        
1 00733U 64002A   26166.48242605  .00000131  00000+0  63870-4 0  9999
2 00733  99.1155 185.1225 0032401 335.6319  24.3331 14.34065008252319
SL-3 R/B                
1 00877U 64053B   26166.00322642  .00000087  00000+0  41162-4 0  9992
2 00877  65.0776  45.9165 0081033 261.7924  97.3980 14.61425908281019
SL-8 R/B                
1 02802U 67045B   26166.42506296  .00000144  00000+0  47462-4 0  9994
2 02802  74.0095 165.5497 0063506 150.4058 210.0719 14.45681315103146
SL-8 R/B                
1 03230U 68040B   26166.32022624  .00002479  00000+0  18214-3 0  9998
2 03230  74.0303 114.1085 0025960 267.5886  92.2330 15.03807352104683
OAO 2                   
1 03597U 68110A   26166.46785999  .00000168  00000+0  50306-4 0  9990
2 03597  34.9941  79.2785 0006235 261.6694  98.3290 14.47351453 33277
ISIS 1                  
1 03669U 69009A   26166.15575223  .00000027  00000+0  20421-4 0  9990
2 03669  88.4428 144.6230 1706169 252.3304  88.4907 11.30433645359541
SERT 2                  
1 04327U 70009A   26166.42337130 -.00000013  00000+0  38765-4 0  9993
2 04327  99.2841 104.2312 0003950 278.9500 188.4950 13.58739010793160
SL-3 R/B                
1 05118U 71028B   26166.46159677  .00042461  00000+0  35639-3 0  9994
2 05118  81.2336 290.5011 0013926 286.4638  73.5089 15.69597275  3973
ASTEX 1                 
1 05560U 71089A   26166.48599257  .00000394  00000+0  99921-4 0  9990
2 05560  92.6999 183.3079 0017811 111.2684 249.0426 14.50850625876480
SL-8 R/B                
1 05730U 71119B   26166.48855007  .00002834  00000+0  14724-3 0  9999
2 05730  73.8874 352.6466 0543778 298.9545  55.8117 14.39497880669553
OAO 3 (COPERNICUS)      
1 06153U 72065A   26166.54709075  .00000232  00000+0  51863-4 0  9996
2 06153  35.0056  99.7495 0007263 243.2122 284.4373 14.60059476860505
ATLAS CENTAUR R/B       
1 06155U 72065B   26166.11607953  .00000983  00000+0  13640-3 0  9996
2 06155  35.0013  94.6833 0032845 111.1338 249.2878 14.77917523855682
SL-8 R/B                
1 08459U 75112B   26166.51049963  .00000202  00000+0  74878-4 0  9991
2 08459  74.0594 198.9585 0016863 266.1127  93.8099 14.38245537645938
SL-3 R/B                
1 10114U 77057B   26166.47158588  .00009346  00000+0  18155-3 0  9994
2 10114  97.5829 342.9294 0005432 293.0229  67.0447 15.47852801683447
SEASAT 1                
1 10967U 78064A   26166.37203027  .00000213  00000+0  97845-4 0  9995
2 10967 108.0170 330.4785 0001883 240.4518 119.6440 14.46242193520633
SL-14 R/B               
1 11267U 79011B   26166.49892061  .00000449  00000+0  41573-4 0  9995
2 11267  82.5238   3.7566 0017532  90.7215 269.6013 14.92012952543369
SL-8 R/B                
1 11574U 79089B   26166.54040375  .00000176  00000+0  61241-4 0  9991
2 11574  74.0694 269.9058 0014944  54.3221 305.9324 14.42403375450219
SL-14 R/B               
1 11672U 80005B   26166.50923330  .00000424  00000+0  40196-4 0  9999
2 11672  82.5141 214.4320 0015341 191.5619 168.5250 14.91027735491068
SL-8 R/B                
1 12139U 81003B   26166.50008889  .00014008  00000+0  34272-3 0  9990
2 12139  82.9361 199.3393 0250648 197.0668 162.2028 15.14179927329467
SL-3 R/B                
1 12465U 81046B   26166.50459368  .00009762  00000+0  21094-3 0  9990
2 12465  81.2290 172.0958 0018703  43.3594 316.9117 15.44166993453515
SL-3 R/B                
1 12904U 81103B   26166.47642946  .00004173  00000+0  17993-3 0  9998
2 12904  81.1591  98.6431 0011918 322.2526  37.7868 15.22274547988100
SL-3 R/B                
1 13068U 82013B   26166.44855234  .00002890  00000+0  12191-3 0  9993
2 13068  81.1742  46.0989 0021257 206.8506 153.1628 15.22778141419225
SL-3 R/B                
1 13154U 82039B   26166.51128951  .00003046  00000+0  18165-3 0  9995
2 13154  81.1443 103.0227 0029042   1.8126 358.3199 15.10529463396403
SL-3 R/B                
1 13403U 82079B   26166.47673082  .00003828  00000+0  14770-3 0  9997
2 13403  81.1468  77.5107 0023565 191.3011 168.7697 15.25777311392608
SL-14 R/B               
1 13553U 82092B   26166.45779646  .00000357  00000+0  37303-4 0  9991
2 13553  82.5682  49.9216 0019814 341.1929 191.6458 14.86746751343455
SL-3 R/B                
1 13819U 83010B   26166.44437907  .00011780  00000+0  21452-3 0  9996
2 13819  81.1021 242.1109 0015619  68.3852 291.9056 15.49204421373063
SL-3 R/B                
1 14208U 83075B   26166.51003146  .00007872  00000+0  19533-3 0  9996
2 14208  97.6097 174.9457 0019167 235.5040 124.4396 15.40466598345206
COSMOS 1536             
1 14699U 84013A   26166.52202422  .00005108  00000+0  20283-3 0  9996
2 14699  82.5440  10.5037 0012707 302.0096  57.9906 15.25036911287520
SL-14 R/B               
1 14820U 84027B   26166.46427727  .00000365  00000+0  38777-4 0  9995
2 14820  82.5411 153.3329 0018325  14.7584 345.4163 14.86058525262158
SL-8 R/B                
1 15483U 85006B   26166.50673684  .00000181  00000+0  68642-4 0  9999
2 15483  74.0459  81.1564 0018827 328.5597 205.4420 14.37834407168083
